TIANMU-1 07             
1 57399U 23101A   26065.57454230  .00008352  00000+0  29795-3 0  9991
2 57399  97.2728 118.5929 0004609 142.4105 217.7458 15.29118809145964
STARLINK-32460          
1 61914U 24207C   26068.01416227  .00028675  00000+0  10471-2 0  9993
2 61914  43.0002 285.1359 0001700 273.0231  87.0426 15.27590764 74623
